{
  "60517": {
    "name": "PlanetScope-60517",
    "line1": "1 60517U 24149BB  26088.16703949  .00028251  00000-0  74573-3 0  9999",
    "line2": "2 60517  97.3724 171.3860 0004525 203.5366 156.5673 15.38417650 90013",
    "meta": {
      "display_name": "PlanetScope-60517",
      "type": "optical",
      "swath_km": 8.0,
      "resolution_m": 4.0,
      "off_nadir_deg": 0,
      "altitude_km": 525.0,
      "priority": 10
    }
  },
  "60539": {
    "name": "ICEYE-60539",
    "line1": "1 60539U 24149BZ  26088.16194615  .00004964  00000-0  40917-3 0  9997",
    "line2": "2 60539  97.6824 166.2106 0002602  42.2626 317.8798 14.99492293 88129",
    "meta": {
      "display_name": "ICEYE-60539",
      "type": "sar",
      "swath_km": 5.0,
      "resolution_m": 1.0,
      "off_nadir_deg": 40,
      "altitude_km": 580.0,
      "priority": 10
    }
  },
  "60546": {
    "name": "ICEYE-60546",
    "line1": "1 60546U 24149CG  26088.20854394  .00004819  00000-0  39875-3 0  9997",
    "line2": "2 60546  97.6803 166.3149 0002819 344.6992  15.4146 14.99355342 88139",
    "meta": {
      "display_name": "ICEYE-60546",
      "type": "sar",
      "swath_km": 5.0,
      "resolution_m": 1.0,
      "off_nadir_deg": 40,
      "altitude_km": 580.0,
      "priority": 10
    }
  },
  "60548": {
    "name": "ICEYE-60548",
    "line1": "1 60548U 24149CJ  26088.17395311  .00006713  00000-0  52560-3 0  9995",
    "line2": "2 60548  97.7054 167.8592 0005450  71.4993 288.6822 15.01339409 88201",
    "meta": {
      "display_name": "ICEYE-60548",
      "type": "sar",
      "swath_km": 5.0,
      "resolution_m": 1.0,
      "off_nadir_deg": 40,
      "altitude_km": 580.0,
      "priority": 10
    }
  },
  "60549": {
    "name": "ICEYE-60549",
    "line1": "1 60549U 24149CK  26088.20232043  .00003203  00000-0  27865-3 0  9993",
    "line2": "2 60549  97.6832 165.9904 0004327 357.4259   2.6941 14.97646596 88102",
    "meta": {
      "display_name": "ICEYE-60549",
      "type": "sar",
      "swath_km": 5.0,
      "resolution_m": 1.0,
      "off_nadir_deg": 40,
      "altitude_km": 580.0,
      "priority": 10
    }
  },
  "62384": {
    "name": "ICEYE-62384",
    "line1": "1 62384U 24247H   26088.19467462  .00008528  00000-0  49909-3 0  9992",
    "line2": "2 62384  44.9982  64.2096 0001690 301.3366  58.7345 15.12248795 70065",
    "meta": {
      "display_name": "ICEYE-62384",
      "type": "sar",
      "swath_km": 5.0,
      "resolution_m": 1.0,
      "off_nadir_deg": 40,
      "altitude_km": 580.0,
      "priority": 10
    }
  },
  "62389": {
    "name": "ICEYE-62389",
    "line1": "1 62389U 24247N   26087.65623224  .00006743  00000-0  39547-3 0  9991",
    "line2": "2 62389  44.9961  66.8707 0000743 266.8949  93.1843 15.12454710 69985",
    "meta": {
      "display_name": "ICEYE-62389",
      "type": "sar",
      "swath_km": 5.0,
      "resolution_m": 1.0,
      "off_nadir_deg": 40,
      "altitude_km": 580.0,
      "priority": 10
    }
  },
  "62698": {
    "name": "ICEYE-62698",
    "line1": "1 62698U 25009CT  26088.92720252  .00003137  00000-0  31624-3 0  9993",
    "line2": "2 62698  97.7406 168.6650 0001825 104.4059 255.7363 14.91835390 65473",
    "meta": {
      "display_name": "ICEYE-62698",
      "type": "sar",
      "swath_km": 5.0,
      "resolution_m": 1.0,
      "off_nadir_deg": 40,
      "altitude_km": 580.0,
      "priority": 10
    }
  },
  "62700": {
    "name": "ICEYE-62700",
    "line1": "1 62700U 25009CV  26088.16704565  .00005552  00000-0  49719-3 0  9999",
    "line2": "2 62700  97.7091 168.8841 0000223  63.1173 297.0071 14.96217303 65445",
    "meta": {
      "display_name": "ICEYE-62700",
      "type": "sar",
      "swath_km": 5.0,
      "resolution_m": 1.0,
      "off_nadir_deg": 40,
      "altitude_km": 580.0,
      "priority": 10
    }
  },
  "62705": {
    "name": "ICEYE-62705",
    "line1": "1 62705U 25009DA  26088.19165065  .00007951  00000-0  63002-3 0  9999",
    "line2": "2 62705  97.8097 174.3749 0001101  79.7070 280.4278 15.00836001 65680",
    "meta": {
      "display_name": "ICEYE-62705",
      "type": "sar",
      "swath_km": 5.0,
      "resolution_m": 1.0,
      "off_nadir_deg": 40,
      "altitude_km": 580.0,
      "priority": 10
    }
  },
  "62707": {
    "name": "ICEYE-62707",
    "line1": "1 62707U 25009DC  26088.21107251  .00004591  00000-0  41938-3 0  9998",
    "line2": "2 62707  97.7075 168.6255 0002066  69.3716 290.7726 14.95522027 87980",
    "meta": {
      "display_name": "ICEYE-62707",
      "type": "sar",
      "swath_km": 5.0,
      "resolution_m": 1.0,
      "off_nadir_deg": 40,
      "altitude_km": 580.0,
      "priority": 10
    }
  },
  "63229": {
    "name": "SpaceEye-T",
    "line1": "1 63229U 25052V   26088.19133524  .00007551  00000-0  33615-3 0  9997",
    "line2": "2 63229  97.4046 342.0235 0006620  76.1931 284.0041 15.21729379 57674",
    "meta": {
      "display_name": "SpaceEye-T",
      "type": "optical",
      "swath_km": 12,
      "resolution_m": 0.25,
      "off_nadir_deg": 45,
      "altitude_km": 510,
      "priority": 1
    }
  }
}